{"type": "FeatureCollection", "features": [ {"type": "Feature", "properties": {"norad_id": 41335, "name": "SENTINEL-3A", "group": "resource", "lat": 80.39622970948463, "lon": -21.911597764566867, "alt_km": 794.504370385991, "timestamp": "2025-12-02T15:49:06.840186+00:00", "meta": {"OBJECT_NAME": "SENTINEL-3A", "OBJECT_ID": "2016-011A", "EPOCH": "2025-12-02T05:19:10.104672", "MEAN_MOTION": 14.26740044, "ECCENTRICITY": 0.00010007, "INCLINATION": 98.6221, "RA_OF_ASC_NODE": 41.3862, "ARG_OF_PERICENTER": 91.118, "MEAN_ANOMALY": 269.0115, "EPHEMERIS_TYPE": 0, "CLASSIFICATION_TYPE": "U", "NORAD_CAT_ID": 41335, "ELEMENT_SET_NO": 999, "REV_AT_EPOCH": 50997, "BSTAR": 0.00010420971, "MEAN_MOTION_DOT": 2.09e-06, "MEAN_MOTION_DDOT": 0}, "tle": {"line1": "1 41335U 16011A   25336.22164473  .00000209  00000+0  10421-3 0  9994", "line2": "2 41335  98.6221  41.3862 0001000  91.1180 269.0115 14.26740044509977"}}, "geometry": {"type": "Point", "coordinates": [-21.911597764566867, 80.39622970948463]}}, {"type": "Feature", "properties": {"norad_id": 41556, "name": "ZIYUAN 3-2 (ZY 3-2)", "group": "resource", "lat": 8.44042850898239, "lon": 49.88621629743564, "alt_km": 502.4397075087809, "timestamp": "2025-12-02T15:49:06.840197+00:00", "meta": {"OBJECT_NAME": "ZIYUAN 3-2 (ZY 3-2)", "OBJECT_ID": "2016-033A", "EPOCH": "2025-12-02T07:53:17.043936", "MEAN_MOTION": 15.2126344, "ECCENTRICITY": 0.00124286, "INCLINATION": 97.4061, "RA_OF_ASC_NODE": 50.6672, "ARG_OF_PERICENTER": 289.7997, "MEAN_ANOMALY": 70.1898, "EPHEMERIS_TYPE": 0, "CLASSIFICATION_TYPE": "U", "NORAD_CAT_ID": 41556, "ELEMENT_SET_NO": 999, "REV_AT_EPOCH": 52805, "BSTAR": 0.00038599541, "MEAN_MOTION_DOT": 8.576e-05, "MEAN_MOTION_DDOT": 0}, "tle": {"line1": "1 41556U 16033A   25336.32866949  .00008576  00000+0  38600-3 0  9995", "line2": "2 41556  97.4061  50.6672 0012428 289.7997  70.1898 15.21263440528055"}}, "geometry": {"type": "Point", "coordinates": [49.88621629743564, 8.44042850898239]}}, {"type": "Feature", "properties": {"norad_id": 41599, "name": "CARTOSAT-2C", "group": "resource", "lat": 30.638821452321906, "lon": 29.55078242894984, "alt_km": 503.39522609624237, "timestamp": "2025-12-02T15:49:06.840207+00:00", "meta": {"OBJECT_NAME": "CARTOSAT-2C", "OBJECT_ID": "2016-040A", "EPOCH": "2025-12-02T10:56:27.576672", "MEAN_MOTION": 15.1934734, "ECCENTRICITY": 0.0011496, "INCLINATION": 97.4778, "RA_OF_ASC_NODE": 33.8117, "ARG_OF_PERICENTER": 100.6142, "MEAN_ANOMALY": 259.6388, "EPHEMERIS_TYPE": 0, "CLASSIFICATION_TYPE": "U", "NORAD_CAT_ID": 41599, "ELEMENT_SET_NO": 999, "REV_AT_EPOCH": 52384, "BSTAR": 3.1915e-05, "MEAN_MOTION_DOT": 6.07e-06, "MEAN_MOTION_DDOT": 0}, "tle": {"line1": "1 41599U 16040A   25336.45587473  .00000607  00000+0  31915-4 0  9996", "line2": "2 41599  97.4778  33.8117 0011496 100.6142 259.6388 15.19347340523840"}}, "geometry": {"type": "Point", "coordinates": [29.55078242894984, 30.638821452321906]}}, {"type": "Feature", "properties": {"norad_id": 41601, "name": "SKYSAT-C1", "group": "resource", "lat": -32.68712073148541, "lon": 18.755300016779117, "alt_km": 474.4782079443057, "timestamp": "2025-12-02T15:49:06.840282+00:00", "meta": {"OBJECT_NAME": "SKYSAT-C1", "OBJECT_ID": "2016-040C", "EPOCH": "2025-12-02T01:51:22.944960", "MEAN_MOTION": 15.32287703, "ECCENTRICITY": 0.00034131, "INCLINATION": 96.9847, "RA_OF_ASC_NODE": 13.6943, "ARG_OF_PERICENTER": 41.9438, "MEAN_ANOMALY": 318.2066, "EPHEMERIS_TYPE": 0, "CLASSIFICATION_TYPE": "U", "NORAD_CAT_ID": 41601, "ELEMENT_SET_NO": 999, "REV_AT_EPOCH": 52764, "BSTAR": 0.00034358842, "MEAN_MOTION_DOT": 0.00010645, "MEAN_MOTION_DDOT": 0}, "tle": {"line1": "1 41601U 16040C   25336.07734890  .00010645  00000+0  34359-3 0  9992", "line2": "2 41601  96.9847  13.6943 0003413  41.9438 318.2066 15.32287703527641"}}, "geometry": {"type": "Point", "coordinates": [18.755300016779117, -32.68712073148541]}}, {"type": "Feature", "properties": {"norad_id": 41603, "name": "LAPAN-A3", "group": "resource", "lat": 33.92524880568643, "lon": 159.42197713446882, "alt_km": 474.79806797414767, "timestamp": "2025-12-02T15:49:06.840299+00:00", "meta": {"OBJECT_NAME": "LAPAN-A3", "OBJECT_ID": "2016-040E", "EPOCH": "2025-12-02T07:20:38.757696", "MEAN_MOTION": 15.31422555, "ECCENTRICITY": 0.00109737, "INCLINATION": 97.1424, "RA_OF_ASC_NODE": 334.2435, "ARG_OF_PERICENTER": 12.0386, "MEAN_ANOMALY": 348.1116, "EPHEMERIS_TYPE": 0, "CLASSIFICATION_TYPE": "U", "NORAD_CAT_ID": 41603, "ELEMENT_SET_NO": 999, "REV_AT_EPOCH": 52466, "BSTAR": 0.00016222424, "MEAN_MOTION_DOT": 4.857e-05, "MEAN_MOTION_DDOT": 0}, "tle": {"line1": "1 41603U 16040E   25336.30600414  .00004857  00000+0  16222-3 0  9991", "line2": "2 41603  97.1424 334.2435 0010973  12.0386 348.1116 15.31422555524667"}}, "geometry": {"type": "Point", "coordinates": [159.42197713446882, 33.92524880568643]}}, {"type": "Feature", "properties": {"norad_id": 41604, "name": "BIROS", "group": "resource", "lat": 81.36064803175073, "lon": -117.49173309165707, "alt_km": 306.95484670068254, "timestamp": "2025-12-02T15:49:06.840311+00:00", "meta": {"OBJECT_NAME": "BIROS", "OBJECT_ID": "2016-040F", "EPOCH": "2025-12-02T01:47:12.310656", "MEAN_MOTION": 15.85419882, "ECCENTRICITY": 0.0002524, "INCLINATION": 97.0713, "RA_OF_ASC_NODE": 7.1141, "ARG_OF_PERICENTER": 176.7275, "MEAN_ANOMALY": 183.4013, "EPHEMERIS_TYPE": 0, "CLASSIFICATION_TYPE": "U", "NORAD_CAT_ID": 41604, "ELEMENT_SET_NO": 999, "REV_AT_EPOCH": 52703, "BSTAR": 0.00063105639, "MEAN_MOTION_DOT": 0.00152369, "MEAN_MOTION_DDOT": 0}, "tle": {"line1": "1 41604U 16040F   25336.07444804  .00152369  00000+0  63106-3 0  9990", "line2": "2 41604  97.0713   7.1141 0002524 176.7275 183.4013 15.85419882527034"}}, "geometry": {"type": "Point", "coordinates": [-117.49173309165707, 81.36064803175073]}}, {"type": "Feature", "properties": {"norad_id": 41727, "name": "GAOFEN-3", "group": "resource", "lat": -79.05393966118751, "lon": 32.25598671670898, "alt_km": 759.6541549722215, "timestamp": "2025-12-02T15:49:06.840321+00:00", "meta": {"OBJECT_NAME": "GAOFEN-3", "OBJECT_ID": "2016-049A", "EPOCH": "2025-12-02T11:12:27.337248", "MEAN_MOTION": 14.42209364, "ECCENTRICITY": 0.0001785, "INCLINATION": 98.4047, "RA_OF_ASC_NODE": 342.2088, "ARG_OF_PERICENTER": 68.8749, "MEAN_ANOMALY": 291.2631, "EPHEMERIS_TYPE": 0, "CLASSIFICATION_TYPE": "U", "NORAD_CAT_ID": 41727, "ELEMENT_SET_NO": 999, "REV_AT_EPOCH": 49029, "BSTAR": 5.2967e-05, "MEAN_MOTION_DOT": 1.31e-06, "MEAN_MOTION_DDOT": 0}, "tle": {"line1": "1 41727U 16049A   25336.46698307  .00000131  00000+0  52967-4 0  9990", "line2": "2 41727  98.4047 342.2088 0001785  68.8749 291.2631 14.42209364490298"}}, "geometry": {"type": "Point", "coordinates": [32.25598671670898, -79.05393966118751]}}, {"type": "Feature", "properties": {"norad_id": 41771, "name": "SKYSAT-C4", "group": "resource", "lat": -81.31065355217861, "lon": 55.177570734782314, "alt_km": 448.61734547741617, "timestamp": "2025-12-02T15:49:06.840335+00:00", "meta": {"OBJECT_NAME": "SKYSAT-C4", "OBJECT_ID": "2016-058B", "EPOCH": "2025-12-02T02:10:01.106976", "MEAN_MOTION": 15.41785331, "ECCENTRICITY": 6.741e-05, "INCLINATION": 96.9392, "RA_OF_ASC_NODE": 1.7997, "ARG_OF_PERICENTER": 108.5071, "MEAN_ANOMALY": 251.625, "EPHEMERIS_TYPE": 0, "CLASSIFICATION_TYPE": "U", "NORAD_CAT_ID": 41771, "ELEMENT_SET_NO": 999, "REV_AT_EPOCH": 51503, "BSTAR": 0.00040333476, "MEAN_MOTION_DOT": 0.00017006, "MEAN_MOTION_DDOT": 0}, "tle": {"line1": "1 41771U 16058B   25336.09029059  .00017006  00000+0  40333-3 0  9992", "line2": "2 41771  96.9392   1.7997 0000674 108.5071 251.6250 15.41785331515035"}}, "geometry": {"type": "Point", "coordinates": [55.177570734782314, -81.31065355217861]}}, {"type": "Feature", "properties": {"norad_id": 41772, "name": "SKYSAT-C5", "group": "resource", "lat": 70.81390195958606, "lon": -0.10870429187643063, "alt_km": 451.377001601998, "timestamp": "2025-12-02T15:49:06.840346+00:00", "meta": {"OBJECT_NAME": "SKYSAT-C5", "OBJECT_ID": "2016-058C", "EPOCH": "2025-12-02T01:25:42.406176", "MEAN_MOTION": 15.3536725, "ECCENTRICITY": 0.00027678, "INCLINATION": 97.0773, "RA_OF_ASC_NODE": 20.2347, "ARG_OF_PERICENTER": 114.4197, "MEAN_ANOMALY": 245.7336, "EPHEMERIS_TYPE": 0, "CLASSIFICATION_TYPE": "U", "NORAD_CAT_ID": 41772, "ELEMENT_SET_NO": 999, "REV_AT_EPOCH": 51352, "BSTAR": 0.0015599666, "MEAN_MOTION_DOT": 0.00053827, "MEAN_MOTION_DDOT": 0}, "tle": {"line1": "1 41772U 16058C   25336.05951859  .00053827  00000+0  15600-2 0  9990", "line2": "2 41772  97.0773  20.2347 0002767 114.4197 245.7336 15.35367250513526"}}, "geometry": {"type": "Point", "coordinates": [-0.10870429187643063, 70.81390195958606]}}, {"type": "Feature", "properties": {"norad_id": 41773, "name": "SKYSAT-C2", "group": "resource", "lat": 18.38775706320446, "lon": -0.7374740063417099, "alt_km": 452.99851184250747, "timestamp": "2025-12-02T15:49:06.840356+00:00", "meta": {"OBJECT_NAME": "SKYSAT-C2", "OBJECT_ID": "2016-058D", "EPOCH": "2025-12-02T01:40:29.417088", "MEAN_MOTION": 15.36900037, "ECCENTRICITY": 0.00051371, "INCLINATION": 97.0376, "RA_OF_ASC_NODE": 1.0519, "ARG_OF_PERICENTER": 61.0509, "MEAN_ANOMALY": 299.1251, "EPHEMERIS_TYPE": 0, "CLASSIFICATION_TYPE": "U", "NORAD_CAT_ID": 41773, "ELEMENT_SET_NO": 999, "REV_AT_EPOCH": 51472, "BSTAR": 0.00037109717, "MEAN_MOTION_DOT": 0.00013325, "MEAN_MOTION_DDOT": 0}, "tle": {"line1": "1 41773U 16058D   25336.06978492  .00013325  00000+0  37110-3 0  9994", "line2": "2 41773  97.0376   1.0519 0005137  61.0509 299.1251 15.36900037514721"}}, "geometry": {"type": "Point", "coordinates": [-0.7374740063417099, 18.38775706320446]}}]}